#cP2017 11 30  0  0  0.00000000      96 ORBIT IGS14 HLM  IGS
## 1977 345600.00000000   900.00000000 58087 0.0000000000000
+   31   G01G02G03G05G06G07G08G09G10G11G12G13G14G15G16G17G18
+        G19G20G21G22G23G24G25G26G27G28G29G30G31G32  0  0  0
+          0  0  0  0  0  0  0  0  0  0  0  0  0  0  0  0  0
+          0  0  0  0  0  0  0  0  0  0  0  0  0  0  0  0  0
+          0  0  0  0  0  0  0  0  0  0  0  0  0  0  0  0  0
++         2  2  2  2  2  2  2  2  2  2  2  2  2  3  2  2  2
++         2  2  2  5  3  2  2  2  2  2  3  2  2  2  0  0  0
++         0  0  0  0  0  0  0  0  0  0  0  0  0  0  0  0  0
++         0  0  0  0  0  0  0  0  0  0  0  0  0  0  0  0  0
++         0  0  0  0  0  0  0  0  0  0  0  0  0  0  0  0  0
%c G  cc GPS ccc cccc cccc cccc cccc ccccc ccccc ccccc ccccc
%c cc cc ccc ccc cccc cccc cccc cccc ccccc ccccc ccccc ccccc
%f  1.2500000  1.025000000  0.00000000000  0.000000000000000
%f  0.0000000  0.000000000  0.00000000000  0.000000000000000
%i    0    0    0    0      0      0      0      0         0
%i    0    0    0    0      0      0      0      0         0
/* FINAL ORBIT COMBINATION FROM WEIGHTED AVERAGE OF:        
/* cod emr esa gfz grg jpl mit ngs sio                      
/* REFERENCED TO IGS TIME (IGST) AND TO WEIGHTED MEAN POLE: 
/* PCV:IGS14_1977 OL/AL:FES2004  NONE     Y  ORB:CMB CLK:CMB
*  2017 11 30 12  0  0.00000000
PG01  22110.110134  14093.614010  -5226.947095    -13.686093  7  7  7  60       
PG02  -2858.313037 -17090.515242  20732.827533    267.638483  5  4  5  98       
PG03  13218.612786  16025.177850  16554.279766    -34.407939  5  5  5  94       
PG05  -2614.112968 -26305.979054    662.269019    -21.176095  4  6  6  89       
PG06  10241.125949 -11646.379486  21585.724854    411.766697  3  5  4  78       
PG07  24633.669273   4555.082235  -9264.489113    272.484808 12  4  6  86       
PG08   6607.122331  13680.619800 -21722.943980    -82.447385  6  6  7 104       
PG09  22506.409098  -4893.919127  13202.562153    477.716410  5  5  5  90       
PG10 -11535.978259  14995.926257 -18559.344920    120.807623  7  5  7 108       
PG11  20203.757083  11081.121400 -13668.301127   -728.689234  7  6  7  73       
PG12 -10365.318909 -19609.113469  14591.979520    362.532000  7  6  4  64       
PG13   2114.727232 -17107.153684 -20328.444948    -94.410993  7  7  7  88       
PG14 -16392.735030  18269.601182  10209.715673    -89.642590 10  7  6  94       
PG15 -10063.508090 -12438.158224 -21393.540577   -357.322681  8  7  6  80       
PG16    756.932914  26319.410299   -406.222478     35.936239  8  7  8  49       
PG17  21607.527923 -15251.366802   1645.188618   -141.204577  9  3  7 117       
PG18 -15374.963725   3161.396037 -20830.792193    633.154633  9  6  7 118       
PG19  18227.331612 -17296.821642   8654.000763   -472.689419  7  4  5 103       
PG20 -14021.006107 -18246.478250 -13448.766416    494.239443 10  7  5 119       
PG21 -24161.888429  -1714.288149 -10164.096403   -457.271909  9  5  7  99       
PG22  11375.979181  21636.575661  10589.645773   -206.455475 15 12 16  90       
PG23  17323.634499   5120.811858  19859.819200   -218.861298  7  6  5  93       
PG24 -20775.259686 -14773.533650  -8034.967429    -42.868815  7  8  8  87       
PG25 -14833.159248  -6779.739306  20855.325887   -498.036749  4  6  4  54       
PG26  -4829.271381  23789.805325  10650.600586   -343.077467  5  3  5  63       
PG27  -5912.646015  18946.434301 -17593.357717    352.230782  5  4  6 119       
PG28  12893.153480 -11118.086343 -19757.315005    666.944712  9  5  7  75       
PG29 -20594.988773   -211.055257  16754.393178    531.526754  8  4  7  93       
PG30  20035.513676  -3493.567853 -17149.282767    124.287515  8  4  7  85       
PG31  -9313.895327  12206.458509  21759.231879    158.675837  5  5  3 111       
PG32 -20202.183117  16990.786366   2622.783507   -527.091145  7  4  6  92       
*  2017 11 30 12 15  0.00000000
PG01  21359.008459  13992.757293  -7951.543152    -13.688290  7  7  8  54       
PG02   -666.234918 -16375.801496  21475.490476    267.629519  5  4  5  89       
PG03  13274.151797  17815.928201  14566.468013    -34.402685  5  5  5  96       
PG05  -2269.524520 -26104.753514   3488.709753    -21.174997  4  5  6 102       
PG06  12463.514646 -10676.777149  20907.827249    411.767962  3  5  3  81       
PG07  25395.897475   5117.113398  -6630.489203    272.479968 12  5  6  70       
PG08   4638.308398  15170.288314 -21229.004873    -82.448458  5  6  7  98       
PG09  21346.415003  -3717.009514  15334.315438    477.720403  5  5  5  80       
PG10 -11956.565459  12823.896686 -19884.809322    120.814137  7  5  7 111       
PG11  18597.008243  11401.029314 -15637.785658   -728.690488  6  6  7 106       
PG12 -10341.290572 -21166.865315  12293.629845    362.530578  6  6  4  57       
PG13   4079.635134 -18163.244351 -19068.087326    -94.410809  8  7  7  59       
PG14 -17350.050826  18610.711642   7592.472412    -89.643329 10  8  6  85       
PG15  -8245.102837 -14016.422336 -21157.845660   -357.322556  8  7  6  94       
PG16    541.907451  26193.513872   2524.970405     35.935904  7  6  8  74       
PG17  21709.587310 -15070.386080  -1260.862198   -141.202802  9  4  6 116       
PG18 -15826.458304    686.106067 -20739.617489    633.154774 10  5  7 120       
PG19  19054.405315 -17600.482939   5938.081809   -472.687300  8  3  6 119       
PG20 -14072.283089 -19667.078892 -11178.380978    494.240588  9  7  5 115       
PG21 -25112.661030  -2372.110091  -7607.935681   -457.268798 10  5  7  89       
PG22  11252.031904  22723.819751   8092.215005   -206.466772 15  7 16  65       
PG23  15588.019563   6588.058737  20816.211874   -218.861512  7  7  5  95       
PG24 -19705.653199 -14646.833931 -10565.512755    -42.869627  6  7  8  95       
PG25 -15061.737795  -9118.095899  19800.840399   -498.042429  4  6  4  75       
PG26  -5255.196901  22478.799787  13040.582627   -343.064392  4  4  5  98       
PG27  -7505.551222  19992.496165 -15701.372272    352.233576  5  3  6 116       
PG28  13082.889754  -8679.442799 -20792.438627    666.947505  9  5  6  43       
PG29 -18992.507258  -1437.094792  18496.589906    531.522249  9  5  8  88       
PG30  21628.029344  -2521.215234 -15298.607294    124.285004  9  3  7  69       
PG31 -11531.839014  11179.903260  21277.765753    158.673533  6  5  4  98       
PG32 -20474.122150  16861.543277   -226.256757   -527.093376  7  4  6 104       
*  2017 11 30 12 30  0.00000000
PG01  20322.141129  13833.406283 -10542.081917    -13.690496  7  7  8 101       
PG02   1621.466766 -15757.825620  21866.924637    267.620880  5  4  5  91       
PG03  13377.820565  19366.111746  12328.157023    -34.397456  4  5  5  96       
PG05  -1849.277771 -25609.807466   6254.236814    -21.173906  4  5  6  84       
PG06  14642.751293  -9858.859210  19870.949618    411.769171  4  4  3  77       
PG07  25902.733525   5531.364996  -3884.642095    272.475024 12  5  5  52       
PG08   2808.234872  16711.801100 -20367.353148    -82.449549  4  5  6  97       
PG09  20078.170486  -2332.346970  17201.715977    477.724413  5  6  4  72       
PG10 -12513.710348  10549.117359 -20866.194960    120.820636  7  5  7 107       
PG11  16807.123801  11802.863082 -17346.481796   -728.691977  6  5  7  91       
PG12 -10370.587244 -22451.133241   9783.986116    362.529225  5  5  4  71       
PG13   5852.761095 -19233.311607 -17482.852502    -94.411154  8  7  6  90       
PG14 -18046.598395  18819.608281   4844.467244    -89.644048 10  8  6  89       
PG15  -6533.148600 -15648.887572 -20563.169075   -357.322488  7  6  5  83       
PG16    282.047440  25747.711653   5411.499294     35.935391  7  6  8  76       
PG17  21563.543978 -14688.644976  -4144.921548   -141.200720  9  5  7 110       
PG18 -16380.315538  -1732.636995 -20272.315135    633.155357 10  5  7 116       
PG19  19605.942660 -17768.867222   3120.502967   -472.685221  9  3  6  90       
PG20 -14113.653947 -20830.390603  -8717.374431    494.241263  9  7  5 110       
PG21 -25805.449893  -2890.296362  -4917.560760   -457.265200 10  5  7  82       
PG22  11108.762022  23537.287507   5456.414718   -206.478290 15  7 16  50       
PG23  13861.295344   8201.035570  21424.974828   -218.861660  7  7  4  89       
PG24 -18369.268706 -14493.644356 -12917.644556    -42.870948  6  7  8  96       
PG25 -15390.893982 -11300.822095  18403.172091   -498.048110  4  6  4  49       
PG26  -5800.078383  20938.930092  15204.959414   -343.051291  4  4  5  97       
PG27  -8867.479177  20972.180922 -13537.532841    352.236391  6  3  6 126       
PG28  13416.406617  -6154.168185 -21448.597391    666.950613  9  5  6  64       
PG29 -17318.228217  -2859.885852  19920.133093    531.517426  9  5  8  93       
PG30  23059.965030  -1715.292870 -13186.167966    124.282509  9  4  7  74       
PG31 -13728.184390  10301.083747  20434.227058    158.671385  6  4  4  99       
PG32 -20509.962226  16533.328702  -3071.383203   -527.095604  6  3  6  98       
EOF
